{
  "type": "FeatureCollection",
  "features": [
    {
      "type": "Feature",
      "properties": {
        "norad_id": 66368,
        "name": "STARLINK-34861",
        "group": "last-30-days",
        "lat": -34.560651570171395,
        "lon": 154.74895227207463,
        "alt_km": 349.66695316463756,
        "timestamp": "2025-12-06T22:38:41.506764+00:00",
        "meta_object_name": "STARLINK-34861",
        "meta_object_id": "2025-254W",
        "meta_epoch": "2025-12-06T04:56:07.751328",
        "meta_mean_motion": 15.74288342,
        "meta_eccentricity": 0.00013867,
        "meta_inclination": 53.1581,
        "meta_ra_of_asc_node": 307.3171,
        "meta_arg_of_pericenter": 122.5028,
        "meta_mean_anomaly": 237.6126,
        "meta_ephemeris_type": 0,
        "meta_classification_type": "U",
        "meta_norad_cat_id": 66368,
        "meta_element_set_no": 999,
        "meta_rev_at_epoch": 465,
        "meta_bstar": 0.0019567965,
        "meta_mean_motion_dot": 0.00297576,
        "meta_mean_motion_ddot": 0,
        "tle_line1": "1 66368U 25254W   25340.20564527  .00297576  00000+0  19568-2 0  9998",
        "tle_line2": "2 66368  53.1581 307.3171 0001386 122.5028 237.6126 15.74288342  4650"
      },
      "geometry": {
        "type": "Point",
        "coordinates": [
          154.74895227207463,
          -34.560651570171395
        ]
      }
    },
    {
      "type": "Feature",
      "properties": {
        "norad_id": 66369,
        "name": "STARLINK-35795",
        "group": "last-30-days",
        "lat": -40.14852910062187,
        "lon": 162.8668061839597,
        "alt_km": 344.93244243128083,
        "timestamp": "2025-12-06T22:38:41.506774+00:00",
        "meta_object_name": "STARLINK-35795",
        "meta_object_id": "2025-254X",
        "meta_epoch": "2025-12-04T02:39:36.815328",
        "meta_mean_motion": 15.74349696,
        "meta_eccentricity": 0.00030446,
        "meta_inclination": 53.1567,
        "meta_ra_of_asc_node": 317.7168,
        "meta_arg_of_pericenter": 147.1731,
        "meta_mean_anomaly": 212.9479,
        "meta_ephemeris_type": 0,
        "meta_classification_type": "U",
        "meta_norad_cat_id": 66369,
        "meta_element_set_no": 999,
        "meta_rev_at_epoch": 432,
        "meta_bstar": 0.0021458163,
        "meta_mean_motion_dot": 0.00328479,
        "meta_mean_motion_ddot": 0,
        "tle_line1": "1 66369U 25254X   25338.11084277  .00328479  00000+0  21458-2 0  9993",
        "tle_line2": "2 66369  53.1567 317.7168 0003044 147.1731 212.9479 15.74349696  4324"
      },
      "geometry": {
        "type": "Point",
        "coordinates": [
          162.8668061839597,
          -40.14852910062187
        ]
      }
    },
    {
      "type": "Feature",
      "properties": {
        "norad_id": 66370,
        "name": "STARLINK-35824",
        "group": "last-30-days",
        "lat": -39.07273773178258,
        "lon": 161.13679964140107,
        "alt_km": 347.06882857020173,
        "timestamp": "2025-12-06T22:38:41.506786+00:00",
        "meta_object_name": "STARLINK-35824",
        "meta_object_id": "2025-254Y",
        "meta_epoch": "2025-12-05T22:49:39.151776",
        "meta_mean_motion": 15.75006861,
        "meta_eccentricity": 0.00012624,
        "meta_inclination": 53.1578,
        "meta_ra_of_asc_node": 308.5735,
        "meta_arg_of_pericenter": 61.4125,
        "meta_mean_anomaly": 298.7022,
        "meta_ephemeris_type": 0,
        "meta_classification_type": "U",
        "meta_norad_cat_id": 66370,
        "meta_element_set_no": 999,
        "meta_rev_at_epoch": 461,
        "meta_bstar": 0.0030357568,
        "meta_mean_motion_dot": 0.00487633,
        "meta_mean_motion_ddot": 0,
        "tle_line1": "1 66370U 25254Y   25339.95114759  .00487633  00000+0  30358-2 0  9994",
        "tle_line2": "2 66370  53.1578 308.5735 0001262  61.4125 298.7022 15.75006861  4614"
      },
      "geometry": {
        "type": "Point",
        "coordinates": [
          161.13679964140107,
          -39.07273773178258
        ]
      }
    },
    {
      "type": "Feature",
      "properties": {
        "norad_id": 66371,
        "name": "STARLINK-35804",
        "group": "last-30-days",
        "lat": -38.38745373001069,
        "lon": 160.08181001286903,
        "alt_km": 349.2768517112445,
        "timestamp": "2025-12-06T22:38:41.506797+00:00",
        "meta_object_name": "STARLINK-35804",
        "meta_object_id": "2025-254Z",
        "meta_epoch": "2025-12-06T07:57:30.304800",
        "meta_mean_motion": 15.74358918,
        "meta_eccentricity": 0.00012584,
        "meta_inclination": 53.1587,
        "meta_ra_of_asc_node": 306.6805,
        "meta_arg_of_pericenter": 307.0115,
        "meta_mean_anomaly": 53.0789,
        "meta_ephemeris_type": 0,
        "meta_classification_type": "U",
        "meta_norad_cat_id": 66371,
        "meta_element_set_no": 999,
        "meta_rev_at_epoch": 467,
        "meta_bstar": 0.0024294204,
        "meta_mean_motion_dot": 0.00374164,
        "meta_mean_motion_ddot": 0,
        "tle_line1": "1 66371U 25254Z   25340.33160075  .00374164  00000+0  24294-2 0  9997",
        "tle_line2": "2 66371  53.1587 306.6805 0001258 307.0115  53.0789 15.74358918  4675"
      },
      "geometry": {
        "type": "Point",
        "coordinates": [
          160.08181001286903,
          -38.38745373001069
        ]
      }
    },
    {
      "type": "Feature",
      "properties": {
        "norad_id": 66372,
        "name": "STARLINK-35821",
        "group": "last-30-days",
        "lat": -44.549385399081025,
        "lon": 171.189846197991,
        "alt_km": 344.880223579863,
        "timestamp": "2025-12-06T22:38:41.506807+00:00",
        "meta_object_name": "STARLINK-35821",
        "meta_object_id": "2025-254AA",
        "meta_epoch": "2025-12-04T10:15:15.064416",
        "meta_mean_motion": 15.7441561,
        "meta_eccentricity": 0.0001567,
        "meta_inclination": 53.1569,
        "meta_ra_of_asc_node": 316.1358,
        "meta_arg_of_pericenter": 64.6576,
        "meta_mean_anomaly": 295.4606,
        "meta_ephemeris_type": 0,
        "meta_classification_type": "U",
        "meta_norad_cat_id": 66372,
        "meta_element_set_no": 999,
        "meta_rev_at_epoch": 437,
        "meta_bstar": 0.0030875,
        "meta_mean_motion_dot": 0.00483155,
        "meta_mean_motion_ddot": 0,
        "tle_line1": "1 66372U 25254AA  25338.42725769  .00483155  00000+0  30875-2 0  9995",
        "tle_line2": "2 66372  53.1569 316.1358 0001567  64.6576 295.4606 15.74415610  4375"
      },
      "geometry": {
        "type": "Point",
        "coordinates": [
          171.189846197991,
          -44.549385399081025
        ]
      }
    },
    {
      "type": "Feature",
      "properties": {
        "norad_id": 66373,
        "name": "STARLINK-35809",
        "group": "last-30-days",
        "lat": -39.63936368761535,
        "lon": 162.03762295931523,
        "alt_km": 349.0832076246388,
        "timestamp": "2025-12-06T22:38:41.506817+00:00",
        "meta_object_name": "STARLINK-35809",
        "meta_object_id": "2025-254AB",
        "meta_epoch": "2025-12-06T07:57:01.145664",
        "meta_mean_motion": 15.74368048,
        "meta_eccentricity": 0.00015195,
        "meta_inclination": 53.1577,
        "meta_ra_of_asc_node": 306.6786,
        "meta_arg_of_pericenter": 304.8098,
        "meta_mean_anomaly": 55.2779,
        "meta_ephemeris_type": 0,
        "meta_classification_type": "U",
        "meta_norad_cat_id": 66373,
        "meta_element_set_no": 999,
        "meta_rev_at_epoch": 467,
        "meta_bstar": 0.002647882,
        "meta_mean_motion_dot": 0.00409778,
        "meta_mean_motion_ddot": 0,
        "tle_line1": "1 66373U 25254AB  25340.33126326  .00409778  00000+0  26479-2 0  9997",
        "tle_line2": "2 66373  53.1577 306.6786 0001519 304.8098  55.2779 15.74368048  4677"
      },
      "geometry": {
        "type": "Point",
        "coordinates": [
          162.03762295931523,
          -39.63936368761535
        ]
      }
    },
    {
      "type": "Feature",
      "properties": {
        "norad_id": 66374,
        "name": "STARLINK-35831",
        "group": "last-30-days",
        "lat": -42.093118316732834,
        "lon": 166.26344735720465,
        "alt_km": 350.7156324040561,
        "timestamp": "2025-12-06T22:38:41.506827+00:00",
        "meta_object_name": "STARLINK-35831",
        "meta_object_id": "2025-254AC",
        "meta_epoch": "2025-12-05T15:10:54.606144",
        "meta_mean_motion": 15.7432573,
        "meta_eccentricity": 0.00041826,
        "meta_inclination": 53.1572,
        "meta_ra_of_asc_node": 310.1414,
        "meta_arg_of_pericenter": 66.4364,
        "meta_mean_anomaly": 293.7095,
        "meta_ephemeris_type": 0,
        "meta_classification_type": "U",
        "meta_norad_cat_id": 66374,
        "meta_element_set_no": 999,
        "meta_rev_at_epoch": 456,
        "meta_bstar": 0.0026107257,
        "meta_mean_motion_dot": 0.00402992,
        "meta_mean_motion_ddot": 0,
        "tle_line1": "1 66374U 25254AC  25339.63257646  .00402992  00000+0  26107-2 0  9998",
        "tle_line2": "2 66374  53.1572 310.1414 0004182  66.4364 293.7095 15.74325730  4566"
      },
      "geometry": {
        "type": "Point",
        "coordinates": [
          166.26344735720465,
          -42.093118316732834
        ]
      }
    }
  ]
}